{
    "links": {
        "self": "http://www.neowsapp.com/rest/v1/neo/3767937?api_key=iIulBulltgU6a56xZRHN4H3l9WmuAYTsLGpBGhQ2"
    },
    "id": "3767937",
    "neo_reference_id": "3767937",
    "name": "(2017 BW93)",
    "designation": "2017 BW93",
    "nasa_jpl_url": "http://ssd.jpl.nasa.gov/sbdb.cgi?sstr=3767937",
    "absolute_magnitude_h": 25.2,
    "estimated_diameter": {
        "kilometers": {
            "estimated_diameter_min": 0.0242412481,
            "estimated_diameter_max": 0.0542050786
        },
        "meters": {
            "estimated_diameter_min": 24.2412481101,
            "estimated_diameter_max": 54.2050786336
        },
        "miles": {
            "estimated_diameter_min": 0.0150628086,
            "estimated_diameter_max": 0.0336814639
        },
        "feet": {
            "estimated_diameter_min": 79.5316564495,
            "estimated_diameter_max": 177.8381901842
        }
    },
    "is_potentially_hazardous_asteroid": false,
    "close_approach_data": [
        {
            "close_approach_date": "2016-08-29",
            "close_approach_date_full": "2016-Aug-29 01:03",
            "epoch_date_close_approach": 1472432580000,
            "relative_velocity": {
                "kilometers_per_second": "4.7448002147",
                "kilometers_per_hour": "17081.280772887",
                "miles_per_hour": "10613.6436002419"
            },
            "miss_distance": {
                "astronomical": "0.4053254797",
                "lunar": "157.6716116033",
                "kilometers": "60635828.419848239",
                "miles": "37677356.6578501382"
            },
            "orbiting_body": "Earth"
        },
        {
            "close_approach_date": "2017-01-15",
            "close_approach_date_full": "2017-Jan-15 14:31",
            "epoch_date_close_approach": 1484490660000,
            "relative_velocity": {
                "kilometers_per_second": "7.8867907947",
                "kilometers_per_hour": "28392.4468610723",
                "miles_per_hour": "17641.9623287591"
            },
            "miss_distance": {
                "astronomical": "0.0264141962",
                "lunar": "10.2751223218",
                "kilometers": "3951507.489282094",
                "miles": "2455352.8976131372"
            },
            "orbiting_body": "Earth"
        }
    ],
    "orbital_data": {
        "orbit_id": "3",
        "orbit_determination_date": "2017-04-06 08:20:24",
        "first_observation_date": "2017-01-31",
        "last_observation_date": "2017-02-16",
        "data_arc_in_days": 16,
        "observations_used": 22,
        "orbit_uncertainty": "8",
        "minimum_orbit_intersection": ".0146861",
        "jupiter_tisserand_invariant": "4.689",
        "epoch_osculation": "2457786.5",
        "eccentricity": ".3701487118778531",
        "semi_major_axis": "1.396037253732231",
        "inclination": "2.588609791137929",
        "ascending_node_longitude": "137.8017477726254",
        "orbital_period": "602.4818088318004",
        "perihelion_distance": ".8792958625297502",
        "perihelion_argument": "287.6757740111205",
        "aphelion_distance": "1.912778644934712",
        "perihelion_time": "2457729.830869302124",
        "mean_anomaly": "33.86141581733771",
        "mean_motion": ".5975284145060453",
        "equinox": "J2000",
        "orbit_class": {
            "orbit_class_type": "APO",
            "orbit_class_description": "Near-Earth asteroid orbits which cross the Earth’s orbit similar to that of 1862 Apollo",
            "orbit_class_range": "a (semi-major axis) > 1.0 AU; q (perihelion) < 1.017 AU"
        }
    },
    "is_sentry_object": false
}